[
    {
        "Altitude(m)": 556367.41503782,
        "Argument of Periapsis(deg)": 0.0,
        "Eccentricity": 0.0,
        "Inclination(deg)": 53.0,
        "Latitude(deg)": 37.24576229162618,
        "Longitude(deg)": -155.23347521917404,
        "Mean Anomaly(deg)": 49.09089999999999,
        "RAAN(deg)": 270.0,
        "Satellite Name": "Starlink Shell 1 1191",
        "Satellite Number": 1191,
        "Semi-Major Axis(m)": 6931778.249405717,
        "Time(s)": 0
    },
    {
        "Altitude(m)": 556450.8002738354,
        "Argument of Periapsis(deg)": 0.00034857847951123687,
        "Eccentricity": 0.0,
        "Inclination(deg)": 53.0,
        "Latitude(deg)": 37.65698603410968,
        "Longitude(deg)": -154.67854838537562,
        "Mean Anomaly(deg)": 49.71773120355674,
        "RAAN(deg)": 269.9994812299225,
        "Satellite Name": "Starlink Shell 1 1191",
        "Satellite Number": 1191,
        "Semi-Major Axis(m)": 6931778.249405717,
        "Time(s)": 10
    },
    {
        "Altitude(m)": 556534.2719428147,
        "Argument of Periapsis(deg)": 0.0006971569590224737,
        "Eccentricity": 0.0,
        "Inclination(deg)": 53.0,
        "Latitude(deg)": 38.065134373317235,
        "Longitude(deg)": -154.11704019380298,
        "Mean Anomaly(deg)": 50.344562407113436,
        "RAAN(deg)": 269.9989624598451,
        "Satellite Name": "Starlink Shell 1 1191",
        "Satellite Number": 1191,
        "Semi-Major Axis(m)": 6931778.249405717,
        "Time(s)": 20
    },
    {
        "Altitude(m)": 556617.7748857709,
        "Argument of Periapsis(deg)": 0.0010457354385337105,
        "Eccentricity": 0.0,
        "Inclination(deg)": 53.0,
        "Latitude(deg)": 38.47012861410174,
        "Longitude(deg)": -153.5488303776207,
        "Mean Anomaly(deg)": 50.971393610670134,
        "RAAN(deg)": 269.9984436897676,
        "Satellite Name": "Starlink Shell 1 1191",
        "Satellite Number": 1191,
        "Semi-Major Axis(m)": 6931778.249405717,
        "Time(s)": 30
    },
    {
        "Altitude(m)": 556701.2541380688,
        "Argument of Periapsis(deg)": 0.0013943139180449475,
        "Eccentricity": 0.0,
        "Inclination(deg)": 53.0,
        "Latitude(deg)": 38.871888313959985,
        "Longitude(deg)": -152.97379830884077,
        "Mean Anomaly(deg)": 51.59822481422683,
        "RAAN(deg)": 269.9979249196901,
        "Satellite Name": "Starlink Shell 1 1191",
        "Satellite Number": 1191,
        "Semi-Major Axis(m)": 6931778.249405717,
        "Time(s)": 40
    },
    {
        "Altitude(m)": 556784.6549574984,
        "Argument of Periapsis(deg)": 0.0017428923975561844,
        "Eccentricity": 0.0,
        "Inclination(deg)": 53.0,
        "Latitude(deg)": 39.270331260008035,
        "Longitude(deg)": -152.39182418165066,
        "Mean Anomaly(deg)": 52.22505601778357,
        "RAAN(deg)": 269.99740614961263,
        "Satellite Name": "Starlink Shell 1 1191",
        "Satellite Number": 1191,
        "Semi-Major Axis(m)": 6931778.249405717,
        "Time(s)": 50
    },
    {
        "Altitude(m)": 556867.9228521591,
        "Argument of Periapsis(deg)": 0.002091470877067421,
        "Eccentricity": 0.0,
        "Inclination(deg)": 53.0,
        "Latitude(deg)": 39.665373447931785,
        "Longitude(deg)": -151.80278869679216,
        "Mean Anomaly(deg)": 52.85188722134032,
        "RAAN(deg)": 269.99688737953517,
        "Satellite Name": "Starlink Shell 1 1191",
        "Satellite Number": 1191,
        "Semi-Major Axis(m)": 6931778.249405717,
        "Time(s)": 60
    },
    {
        "Altitude(m)": 556951.0036082321,
        "Argument of Periapsis(deg)": 0.0024400493565786582,
        "Eccentricity": 0.0,
        "Inclination(deg)": 53.0,
        "Latitude(deg)": 40.05692906315903,
        "Longitude(deg)": -151.20657276047248,
        "Mean Anomaly(deg)": 53.47871842489697,
        "RAAN(deg)": 269.9963686094577,
        "Satellite Name": "Starlink Shell 1 1191",
        "Satellite Number": 1191,
        "Semi-Major Axis(m)": 6931778.249405717,
        "Time(s)": 70
    },
    {
        "Altitude(m)": 557033.8433175214,
        "Argument of Periapsis(deg)": 0.002788627836089895,
        "Eccentricity": 0.0,
        "Inclination(deg)": 53.0,
        "Latitude(deg)": 40.44491046451281,
        "Longitude(deg)": -150.60305871127676,
        "Mean Anomaly(deg)": 54.105549628453716,
        "RAAN(deg)": 269.99584983938024,
        "Satellite Name": "Starlink Shell 1 1191",
        "Satellite Number": 1191,
        "Semi-Major Axis(m)": 6931778.249405717,
        "Time(s)": 80
    },
    {
        "Altitude(m)": 557116.3884048361,
        "Argument of Periapsis(deg)": 0.0031372063156011316,
        "Eccentricity": 0.0,
        "Inclination(deg)": 53.0,
        "Latitude(deg)": 40.82922817061526,
        "Longitude(deg)": -149.99213004991674,
        "Mean Anomaly(deg)": 54.73238083201041,
        "RAAN(deg)": 269.9953310693027,
        "Satellite Name": "Starlink Shell 1 1191",
        "Satellite Number": 1191,
        "Semi-Major Axis(m)": 6931778.249405717,
        "Time(s)": 90
    },
    {
        "Altitude(m)": 557198.5856551371,
        "Argument of Periapsis(deg)": 0.0034857847951123688,
        "Eccentricity": 0.0,
        "Inclination(deg)": 53.0,
        "Latitude(deg)": 41.20979084933542,
        "Longitude(deg)": -149.3736711852386,
        "Mean Anomaly(deg)": 55.359212035567154,
        "RAAN(deg)": 269.99481229922526,
        "Satellite Name": "Starlink Shell 1 1191",
        "Satellite Number": 1191,
        "Semi-Major Axis(m)": 6931778.249405717,
        "Time(s)": 100
    },
    {
        "Altitude(m)": 557280.3822405012,
        "Argument of Periapsis(deg)": 0.003834363274623606,
        "Eccentricity": 0.0,
        "Inclination(deg)": 53.0,
        "Latitude(deg)": 41.58650531058892,
        "Longitude(deg)": -148.74756870988824,
        "Mean Anomaly(deg)": 55.9860432391239,
        "RAAN(deg)": 269.99429352914785,
        "Satellite Name": "Starlink Shell 1 1191",
        "Satellite Number": 1191,
        "Semi-Major Axis(m)": 6931778.249405717,
        "Time(s)": 110
    },
    {
        "Altitude(m)": 557361.7257468271,
        "Argument of Periapsis(deg)": 0.004182941754134842,
        "Eccentricity": 0.0,
        "Inclination(deg)": 53.0,
        "Latitude(deg)": 41.95927650280744,
        "Longitude(deg)": -148.1137111803652,
        "Mean Anomaly(deg)": 56.61287444268055,
        "RAAN(deg)": 269.99377475907033,
        "Satellite Name": "Starlink Shell 1 1191",
        "Satellite Number": 1191,
        "Semi-Major Axis(m)": 6931778.249405717,
        "Time(s)": 120
    },
    {
        "Altitude(m)": 557442.5642002977,
        "Argument of Periapsis(deg)": 0.004531520233646079,
        "Eccentricity": 0.0,
        "Inclination(deg)": 53.0,
        "Latitude(deg)": 42.32800751341854,
        "Longitude(deg)": -147.47198891476896,
        "Mean Anomaly(deg)": 57.2397056462373,
        "RAAN(deg)": 269.9932559889928,
        "Satellite Name": "Starlink Shell 1 1191",
        "Satellite Number": 1191,
        "Semi-Major Axis(m)": 6931778.249405717,
        "Time(s)": 130
    },
    {
        "Altitude(m)": 557522.8460936045,
        "Argument of Periapsis(deg)": 0.0048800987131573164,
        "Eccentricity": 0.0,
        "Inclination(deg)": 53.0,
        "Latitude(deg)": 42.69259957369087,
        "Longitude(deg)": -146.82229532147855,
        "Mean Anomaly(deg)": 57.866536849793995,
        "RAAN(deg)": 269.9927372189154,
        "Satellite Name": "Starlink Shell 1 1191",
        "Satellite Number": 1191,
        "Semi-Major Axis(m)": 6931778.249405717,
        "Time(s)": 140
    },
    {
        "Altitude(m)": 557602.520411896,
        "Argument of Periapsis(deg)": 0.005228677192668553,
        "Eccentricity": 0.0,
        "Inclination(deg)": 53.0,
        "Latitude(deg)": 43.052952068308976,
        "Longitude(deg)": -146.1645267333163,
        "Mean Anomaly(deg)": 58.493368053350736,
        "RAAN(deg)": 269.99221844883795,
        "Satellite Name": "Starlink Shell 1 1191",
        "Satellite Number": 1191,
        "Semi-Major Axis(m)": 6931778.249405717,
        "Time(s)": 150
    },
    {
        "Altitude(m)": 557681.5366584334,
        "Argument of Periapsis(deg)": 0.00557725567217979,
        "Eccentricity": 0.0,
        "Inclination(deg)": 53.0,
        "Latitude(deg)": 43.40896255006006,
        "Longitude(deg)": -145.49858226028095,
        "Mean Anomaly(deg)": 59.12019925690743,
        "RAAN(deg)": 269.9916996787604,
        "Satellite Name": "Starlink Shell 1 1191",
        "Satellite Number": 1191,
        "Semi-Major Axis(m)": 6931778.249405717,
        "Time(s)": 160
    },
    {
        "Altitude(m)": 557759.8448799859,
        "Argument of Periapsis(deg)": 0.0059258341516910265,
        "Eccentricity": 0.0,
        "Inclination(deg)": 53.0,
        "Latitude(deg)": 43.760526760031205,
        "Longitude(deg)": -144.82436517383624,
        "Mean Anomaly(deg)": 59.74703046046413,
        "RAAN(deg)": 269.99118090868296,
        "Satellite Name": "Starlink Shell 1 1191",
        "Satellite Number": 1191,
        "Semi-Major Axis(m)": 6931778.249405717,
        "Time(s)": 170
    },
    {
        "Altitude(m)": 557837.3956918801,
        "Argument of Periapsis(deg)": 0.006274412631202263,
        "Eccentricity": 0.0,
        "Inclination(deg)": 53.0,
        "Latitude(deg)": 44.107538653715245,
        "Longitude(deg)": -144.14178279701636,
        "Mean Anomaly(deg)": 60.37386166402088,
        "RAAN(deg)": 269.9906621386055,
        "Satellite Name": "Starlink Shell 1 1191",
        "Satellite Number": 1191,
        "Semi-Major Axis(m)": 6931778.249405717,
        "Time(s)": 180
    }
]